[{"OBJECT_NAME":"STARLINK-3638","OBJECT_ID":"2022-017U","EPOCH":"2026-03-09T22:07:14.121408","MEAN_MOTION":15.08817254,"ECCENTRICITY":0.00014038,"INCLINATION":53.2192,"RA_OF_ASC_NODE":348.0787,"ARG_OF_PERICENTER":107.8319,"MEAN_ANOMALY":252.2826,"EPHEMERIS_TYPE":0,"CLASSIFICATION_TYPE":"U","NORAD_CAT_ID":51786,"ELEMENT_SET_NO":999,"REV_AT_EPOCH":22231,"BSTAR":0.00017953378,"MEAN_MOTION_DOT":2.569e-5,"MEAN_MOTION_DDOT":0},{"OBJECT_NAME":"COSMOS 970 DEB","OBJECT_ID":"1977-121BW","EPOCH":"2026-03-09T04:53:14.846784","MEAN_MOTION":14.37544219,"ECCENTRICITY":0.03554347,"INCLINATION":65.6599,"RA_OF_ASC_NODE":142.1451,"ARG_OF_PERICENTER":356.6534,"MEAN_ANOMALY":33.036,"EPHEMERIS_TYPE":0,"CLASSIFICATION_TYPE":"U","NORAD_CAT_ID":20032,"ELEMENT_SET_NO":999,"REV_AT_EPOCH":64092,"BSTAR":0.00097582793,"MEAN_MOTION_DOT":6.002e-5,"MEAN_MOTION_DDOT":0}]
